#dP2021  4  7 18  0  0.00000000      96 __u+U ITR00 EXT  IAC
## 2152 324000.00000000   900.00000000 59311 0.7500000000000
+  117   C06C07C08C09C10C11C12C13C14C16C19C20C21C22C23C24C25
+        C26C27C28C29C30C32C33C34C35C36C37C38C39C40C41C42C43
+        C44C45C46E01E02E03E04E05E07E08E09E11E12E13E14E15E18
+        E19E21E24E25E26E27E30E31E33E36G01G02G03G04G05G06G07
+        G08G09G10G11G12G13G14G15G16G17G18G19G20G21G22G23G24
+        G25G26G27G28G29G30G31G32J01J02J03R01R02R03R04R05R07
+        R08R09R11R12R13R14R15R16R17R18R19R20R21R22R24  0  0
++        10  9  9  8  9 13 11 10 10  8  8  9 10  9  9  8  8
++        10  9 10 10  9  8  8  9 10 10 10 11 10 10 10 10 10
++        10 11  9  7  6  8  8  8  8  8  9  8  8  6  8  8  7
++         8  8  9  8  8  7  9  8  8  7  8  9  7  7  6  7  8
++         7  7  7  9  6  7  9  7  8  7  5  8  9  8  7  7  7
++         8  8  6  8  7  8  8  8 10 11 10  8  8  8  9  8  9
++         9 11  8  9  9  9  9  9 10  7 10 10  8  7  8  0  0
%c M  cc GPS ccc cccc cccc cccc cccc ccccc ccccc ccccc ccccc
%c cc cc ccc ccc cccc cccc cccc cccc ccccc ccccc ccccc ccccc
%f  0.0000000  0.000000000  0.00000000000  0.000000000000000
%f  0.0000000  0.000000000  0.00000000000  0.000000000000000
%i    0    0    0    0      0      0      0      0         0
%i    0    0    0    0      0      0      0      0         0
/* IAC                                ULTRA-RAPID PREDICTION
/* S/V CLOCKS ARE ALIGNED TO GNSS TIME                      
/* G:C1WC2W R:C1PC2P E:C1XC5X C:C2IC6I J:C1CC2S             
/* PCV:IGS14_2148 OL/AL:FES2004  NONE     YN ORB:CoN CLK:CoN
*  2021 04 08  2  0  0.00000000
PC06 -22947.693242  33868.567570   9518.010192    255.792746
PC07  -9554.918712  32466.777067  25696.874839    -97.895557
PC08 -17178.371918  16976.564891 -34525.555092   -893.646278
PC09 -11529.534709  33536.018596  22759.090756    611.645882
PC10   2467.793210  39459.376670  15470.263071    -59.778449
PC11   7985.276201  13108.179339 -23247.379226   -822.294958
PC12  -9738.753305  21061.325346 -15478.584062    926.590570
PC13  -1338.441213  22724.811945 -35367.578190    212.621472
PC14  10967.985215  23890.990235   9479.489166    411.497714
PC16 -20345.970785  34609.585404  12615.291235   -772.507797
PC19 -14916.137709 -16232.447647 -17067.783510    790.636932
PC20  -6127.952171 -27146.559269  -1806.835878   -948.724805
PC21  -6773.368566  22362.558901 -15250.674588   -929.225705
PC22 -15319.001107   4463.505469 -22886.225371   -952.926577
PC23  25114.607826    108.225159 -12163.569838   -885.105641
PC24   8616.136425  18058.261596  19430.535187   -806.767274
PC25  24750.648352  12014.296243   4597.869748   -935.981328
PC26 -10360.525513  13226.880190  22275.998620    924.139015
PC27  17397.462243 -20561.966920   7325.126738    511.771335
PC28  23865.055118 -10201.707533 -10251.851034    -88.919987
PC29 -16570.598743  -5501.929523  21759.430116    375.809399
PC30    516.602829 -19115.346280  20328.197919    458.559559
PC32   6660.261893 -22375.560729  15300.981603   -933.707024
PC33  15030.592616  16226.299744  17039.143939   -942.278098
PC34    217.769734  18784.430098 -20636.211642   -700.930989
PC35 -23493.920064  10728.941347  10511.963592   -337.440155
PC36 -24321.627722 -12764.630755  -4911.587407   -733.454592
PC37  11501.573395 -12541.460409 -22101.231133   -891.454086
PC38 -13060.366172  20983.046294 -34155.039948    140.858846
PC39 -16552.460757  36014.795383  14215.973107     30.102192
PC40  -1001.121969  38227.495679  17913.971545    148.930017
PC41  15449.238461  -4164.531065  22916.914050   -940.721049
PC42   5766.817215  27288.405331   1201.087933   -927.760728
PC43  16292.421504   6082.261100 -21837.711397   -675.523654
PC44 -16757.932589  21113.627137  -7151.971227    126.422402
PC45 -25070.806312    -57.117206  12277.249790    407.925974
PC46  -9725.060770 -17972.419707 -19018.535358    326.388944
PE01   7899.407601 -15337.560465 -24057.271670  -1082.318417
PE02  -7811.260038  15404.950524  24029.434392    210.617077
PE03 -13283.867281  25428.012474  -7312.776691   -417.682140
PE04    446.670337 -27516.814308 -10890.496819   -745.530334
PE05 -18524.826298   8362.614810 -21513.224152   -290.612302
PE07  12914.440800  13401.247755  23029.594542   -522.825916
PE08   -128.509999  27399.194930  11221.536131   6021.011805
PE09 -12934.751366 -13108.309235 -23163.397403   5708.272555
PE11 -21914.605628  -7259.380820  18507.828900   6119.095451
PE12  -1390.881950 -16265.897469  24694.453521   5270.713311
PE13  21624.857694   7379.451494 -18818.574967    414.707212
PE14 -10811.699551 -10538.448135  17935.355642  -1389.310138
PE15   1499.942131  16166.730450 -24741.244970    820.593031
PE18  13944.768494  15883.011458 -24706.222127  -1519.767600
PE19  14348.864748 -24129.630163   9398.006703    246.738686
PE21  20924.566798   1920.054215 -20851.372234   -658.082467
PE24 -21979.691355 -19280.101593   4692.507982   -835.323747
PE25 -21011.531080  -2120.022290  20744.686310   -530.442415
PE26  28954.121854  -6072.641033  -1062.379738   1950.130174
PE27  22289.513101  18695.235140  -5430.802301     -6.492180
PE30   9673.136313  24339.420185  13761.143689   3042.834369
PE31 -10551.810509 -24372.395304 -13073.644084   -479.941832
PE33  19484.858659 -15427.685115  16095.485874   -467.318915
PE36 -28975.051534   5728.792533   1834.426664   -190.708628
PG01  10897.971390  13470.063700 -20482.088170    721.923407
PG02  14392.650459 -14019.007314  18049.325115   -593.638879
PG03  12723.737188  23317.961063  -1815.824580   -130.598197
PG04   3063.898209  19379.727630  17884.671531   -190.653921
PG05   -199.273809 -20948.044282  16069.942086    -38.454191
PG06  24296.355856  -6386.199443   8779.866312      5.668994
PG07  22976.554376   7928.025828  11615.099432    115.245151
PG08  -3233.936119  23471.119334 -11688.596733    -16.685501
PG09  11953.110141   9988.826795  21452.296176   -337.276598
PG10 -17543.771248  -2665.097445 -19730.285511    -97.454610
PG11   5818.662951  15489.322518 -21251.317209     23.421314
PG12  -8950.044577 -24660.658203  -4894.818895    -24.826416
PG13  12516.596604 -22850.733717  -4924.669415    117.264669
PG14  17734.049982   3937.805264 -19395.524223     97.477262
PG15    -65.966564 -23684.079528 -12013.035733   -157.692135
PG16  -4511.508879  18563.057351  18002.457881   -306.257169
PG17  18319.917205  -7515.250462 -17274.182037    422.806998
PG18 -24762.984387  -5468.787298   7992.445464    351.584433
PG19  19305.604094 -14163.888761 -11665.402507    -15.856344
PG20 -18636.808295 -18849.727933  -3204.649942    523.402509
PG21   2626.281310  14768.062060 -21213.873551    109.324762
PG22   7619.868627  23154.367905 -10565.667001   -642.954577
PG23 -19167.311451 -13100.266247 -12961.302771    114.623584
PG24  -5444.032252 -15278.774618 -21317.908630      0.061832
PG25 -17334.255587 -18952.006594   7041.588995    114.328473
PG26 -11327.662969  10937.005255  21314.102718     69.135775
PG27 -12093.937074  23405.435472   -909.595397   -108.711050
PG28  16339.769194   2091.642598 -20235.061416    590.139262
PG29 -11022.770286  -9875.447840  22005.910206   -326.097914
PG30  26657.915688   -672.210169  -1024.625801   -409.757945
PG31 -23163.702365   7679.071873  10949.761402   -110.294472
PG32 -18322.901644   9732.063137 -16378.222828     22.049658
PJ01 -21005.392974  29169.239039 -17445.974570   -363.145821
PJ02 -25868.514975  21313.072173  30470.311750      4.994513
PJ03 -35151.463849  23290.874722   3316.112735     -2.994476
PR01   6738.203311 -19999.574466  14323.135277     77.566301
PR02  -2379.864488 -24702.587497  -5982.911276    473.943845
PR03  -9278.013606 -13043.106837 -19831.483970     33.822978
PR04 -10600.796392   5849.371300 -22419.022388     81.420962
PR05  -6175.874859  21386.818331 -12420.308913     69.588570
PR07   9478.952228  12294.025493  20268.420519    -42.545104
PR08  10744.108183  -5924.672942  22425.435046    -58.408024
PR09  11475.242070  15910.588560  16357.806596    -13.155102
PR11  19947.233654   2893.565808 -15632.301736      1.333579
PR12   5937.777895  -9225.309845 -23006.648478    219.058984
PR13 -11024.115511 -15626.600379 -16901.865607    -53.115505
PR14 -21939.322930 -12998.420299   -249.081552     62.900518
PR15 -19723.987716  -2799.601373  15947.189873    104.504256
PR16  -5000.241715   9967.633103  22912.647490    -13.515181
PR17 -14856.792917  -2445.626441  20607.046278    414.448931
PR18 -22716.936130   8438.732259   7878.883558     72.459626
PR19 -19425.915429  14244.336032  -8384.894996   -138.892541
PR20  -2608.706404  12386.888374 -22128.567575    -46.870152
PR21  15672.330870   1659.607891 -20051.245975   -200.152892
PR22  22945.789029  -8991.310519  -6798.714049   -106.685716
PR24   1521.014648 -12573.087511  22156.692620     38.005853
EOF
